STARS (KUKAI)           
1 33498U 09002G   26131.08762830  .00001749  00000+0  16365-3 0  9999
2 33498  98.1530  76.8955 0007042 299.6144  60.4374 14.95493825932933
KKS-1 (KISEKI)          
1 33499U 09002H   26131.14890405  .00000846  00000+0  11087-3 0  9990
2 33499  98.1194  53.0069 0009128  56.2837 303.9245 14.83025915930709
UK-DMC 2                
1 35683U 09041C   26131.21141192  .00000601  00000+0  94528-4 0  9991
2 35683  97.8779 267.0943 0001680  82.1164 278.0236 14.75969674901110
OCEANSAT-2              
1 35931U 09051A   26131.24125632  .00000021  00000+0  40208-4 0  9994
2 35931  98.2298 121.7851 0015262 345.6083  14.4647 13.99648019874163
SWISSCUBE               
1 35932U 09051B   26131.15387530  .00000632  00000+0  13476-3 0  9996
2 35932  98.4059  38.3953 0006336 339.8683  20.2267 14.62408150883748
BEESAT-1                
1 35933U 09051C   26131.00728106  .00000533  00000+0  11694-3 0  9999
2 35933  98.3987  37.9590 0005190 358.3259   1.7923 14.61658137883757
ITUPSAT1                
1 35935U 09051E   26130.69163038  .00000508  00000+0  11516-3 0  9997
2 35935  98.4072  36.8697 0007623   5.6146 354.5137 14.60382828883263
DMSP 5D-3 F18 (USA 210) 
1 35951U 09057A   26131.22707860  .00000210  00000+0  13164-3 0  9999
2 35951  98.9025 112.0808 0011157   2.5051 357.6176 14.14875232854364
PROBA-2                 
1 36037U 09059B   26131.10148686  .00000116  00000+0  37463-4 0  9993
2 36037  98.2451 314.9693 0014053  39.9206 320.3021 14.54846357876130
YAOGAN-7                
1 36110U 09069A   26131.19199157  .00000256  00000+0  42641-4 0  9993
2 36110  98.0116  17.2797 0025100 155.6159 204.6245 14.77971940884160
COSMOS 2463             
1 36519U 10017A   26131.15683127  .00000055  00000+0  43875-4 0  9999
2 36519  82.9584 276.9156 0035124 231.4215 302.5048 13.71663163802853
CARTOSAT-2B             
1 36795U 10035A   26131.18832547  .00000518  00000+0  77873-4 0  9999
2 36795  97.9981 181.9689 0010391 316.1182  43.9203 14.78615264854386
TISAT 1                 
1 36799U 10035E   26130.79614140  .00013199  00000+0  45306-3 0  9990
2 36799  98.0690  74.0785 0003717  57.1556 303.0040 15.30286662861987
YAOGAN-10               
1 36834U 10038A   26131.23243256  .00001398  00000+0  16934-3 0  9992
2 36834  97.9006 154.9307 0001446  92.3834 334.9515 14.85233987851723
SHIJIAN-6 04B (SJ-6 04B)
1 37180U 10051B   26131.24916450  .00000178  00000+0  19628-4 0  9995
2 37180  97.8741 136.2834 0012829  70.6753 289.5855 14.99261113850141
FENGYUN 3B              
1 37214U 10059A   26131.25044080 -.00000005  00000+0  20994-4 0  9991
2 37214  98.9651 177.1029 0021065 292.8227 145.3515 14.14833098802207
COSMO-SKYMED 4          
1 37216U 10060A   26131.17794784 -.00000444  00000+0 -49252-4 0  9995
2 37216  97.8892 315.3140 0001360  80.6508 279.4859 14.82150470839082
O/OREOS (USA 219)       
1 37224U 10062C   26131.15978965  .00001153  00000+0  11512-3 0  9992
2 37224  71.9685 164.2013 0013170 143.6058 216.6011 14.93587998111117
RESOURCESAT-2           
1 37387U 11015A   26131.13813428  .00000057  00000+0  46202-4 0  9998
2 37387  98.7655 198.8323 0011314  10.6229 349.5185 14.21603938780911
YOUTHSAT                
1 37388U 11015B   26131.15918000  .00000134  00000+0  73951-4 0  9990
2 37388  98.3665 106.8883 0015752  90.5167 280.8821 14.25614266782362
APRIZESAT 6             
1 37793U 11044F   26131.00983471  .00000376  00000+0  60660-4 0  9991
2 37793  98.2385  40.7479 0042520 203.2977 167.1362 14.76864170791669
JUGNU                   
1 37839U 11058B   26131.16674831  .00000379  00000+0  58543-4 0  9991
2 37839  19.9591 173.3381 0018715  28.1627   9.0917 14.13765554753787
SRMSAT                  
1 37841U 11058D   26131.13066574  .00000368  00000+0  55753-4 0  9998
2 37841  19.9728 283.7690 0011716 156.0441  18.8473 14.11567394752571
SUOMI NPP               
1 37849U 11061A   26131.19427848  .00000036  00000+0  38100-4 0  9990
2 37849  98.7939  72.3270 0002840  77.6528 282.4966 14.19509318753191
