OBJECT_NAME,OBJECT_ID,EPOCH,MEAN_MOTION,ECCENTRICITY,INCLINATION,RA_OF_ASC_NODE,ARG_OF_PERICENTER,MEAN_ANOMALY,EPHEMERIS_TYPE,CLASSIFICATION_TYPE,NORAD_CAT_ID,ELEMENT_SET_NO,REV_AT_EPOCH,BSTAR,MEAN_MOTION_DOT,MEAN_MOTION_DDOT
STARS (KUKAI),2009-002G,2026-05-11T02:06:11.085120,14.95493825,.0007042,98.1530,76.8955,299.6144,60.4374,0,U,33498,999,93293,.16365E-3,.1749E-4,0
KKS-1 (KISEKI),2009-002H,2026-05-11T03:34:25.309920,14.83025915,.0009128,98.1194,53.0069,56.2837,303.9245,0,U,33499,999,93070,.11087E-3,.846E-5,0
UK-DMC 2,2009-041C,2026-05-11T05:04:25.989888,14.75969674,.000168,97.8779,267.0943,82.1164,278.0236,0,U,35683,999,90111,.94528E-4,.601E-5,0
OCEANSAT-2,2009-051A,2026-05-11T05:47:24.546048,13.99648019,.0015262,98.2298,121.7851,345.6083,14.4647,0,U,35931,999,87416,.40208E-4,.21E-6,0
SWISSCUBE,2009-051B,2026-05-11T03:41:34.825920,14.62408150,.0006336,98.4059,38.3953,339.8683,20.2267,0,U,35932,999,88374,.13476E-3,.632E-5,0
BEESAT-1,2009-051C,2026-05-11T00:10:29.083584,14.61658137,.000519,98.3987,37.9590,358.3259,1.7923,0,U,35933,999,88375,.11694E-3,.533E-5,0
ITUPSAT1,2009-051E,2026-05-10T16:35:56.863968,14.60382828,.0007623,98.4072,36.8697,5.6146,354.5137,0,U,35935,999,88326,.11516E-3,.508E-5,0
DMSP 5D-3 F18 (USA 210),2009-057A,2026-05-11T05:26:59.591040,14.14875232,.0011157,98.9025,112.0808,2.5051,357.6176,0,U,35951,999,85436,.13164E-3,.21E-5,0
PROBA-2,2009-059B,2026-05-11T02:26:08.464704,14.54846357,.0014053,98.2451,314.9693,39.9206,320.3021,0,U,36037,999,87613,.37463E-4,.116E-5,0
YAOGAN-7,2009-069A,2026-05-11T04:36:28.071648,14.77971940,.00251,98.0116,17.2797,155.6159,204.6245,0,U,36110,999,88416,.42641E-4,.256E-5,0
COSMOS 2463,2010-017A,2026-05-11T03:45:50.220864,13.71663163,.0035125,82.9584,276.9156,231.4215,302.5048,0,U,36519,999,80285,.43875E-4,.55E-6,0
CARTOSAT-2B,2010-035A,2026-05-11T04:31:11.320608,14.78615264,.0010391,97.9981,181.9689,316.1182,43.9203,0,U,36795,999,85438,.77873E-4,.518E-5,0
TISAT 1,2010-035E,2026-05-10T19:06:26.616096,15.30286661,.0003718,98.0690,74.0785,57.1556,303.0040,0,U,36799,999,86198,.45306E-3,.13199E-3,0
YAOGAN-10,2010-038A,2026-05-11T05:34:42.173184,14.85233987,.0001446,97.9006,154.9307,92.3834,334.9515,0,U,36834,999,85172,.16934E-3,.1398E-4,0
SHIJIAN-6 04B (SJ-6 04B),2010-051B,2026-05-11T05:58:47.812800,14.99261113,.0012829,97.8741,136.2834,70.6753,289.5855,0,U,37180,999,85014,.19628E-4,.178E-5,0
FENGYUN 3B,2010-059A,2026-05-11T06:00:38.085120,14.14833098,.0021065,98.9651,177.1029,292.8227,145.3515,0,U,37214,999,80220,.20994E-4,-.5E-7,0
COSMO-SKYMED 4,2010-060A,2026-05-11T04:16:14.693376,14.82150470,.000136,97.8892,315.3140,80.6508,279.4859,0,U,37216,999,83908,-.49252E-4,-.444E-5,0
O/OREOS (USA 219),2010-062C,2026-05-11T03:50:05.825760,14.93587998,.001317,71.9685,164.2013,143.6058,216.6011,0,U,37224,999,11111,.11512E-3,.1153E-4,0
RESOURCESAT-2,2011-015A,2026-05-11T03:18:54.801792,14.21603938,.0011314,98.7655,198.8323,10.6229,349.5185,0,U,37387,999,78091,.46202E-4,.57E-6,0
YOUTHSAT,2011-015B,2026-05-11T03:49:13.152000,14.25614266,.0015752,98.3665,106.8883,90.5167,280.8821,0,U,37388,999,78236,.73951E-4,.134E-5,0
APRIZESAT 6,2011-044F,2026-05-11T00:14:09.718944,14.76864170,.004252,98.2385,40.7479,203.2977,167.1362,0,U,37793,999,79166,.6066E-4,.376E-5,0
JUGNU,2011-058B,2026-05-11T04:00:07.053120,14.13765554,.0018715,19.9591,173.3381,28.1627,9.0917,0,U,37839,999,75378,.58543E-4,.379E-5,0
SRMSAT,2011-058D,2026-05-11T03:08:09.519936,14.11567394,.0011716,19.9728,283.7690,156.0441,18.8473,0,U,37841,999,75257,.55753E-4,.368E-5,0
SUOMI NPP,2011-061A,2026-05-11T04:39:45.660672,14.19509318,.000284,98.7939,72.3270,77.6528,282.4966,0,U,37849,999,75319,.381E-4,.36E-6,0
